GORIZONT 1 [-]          
1 11158U 78118A   22251.31196523 -.00000110  00000+0  00000+0 0  9994
2 11158  11.0828 202.1626 3461798 285.7216  39.1423  1.00306926109128
GORIZONT 2 [-]          
1 11440U 79062A   22251.17247282  .00000019  00000+0  00000+0 0  9997
2 11440   9.0976 300.8792 0003267 251.4246 277.2979  1.00281597124209
GORIZONT 3 [-]          
1 11648U 79105A   22251.17238562  .00000010  00000+0  00000+0 0  9997
2 11648   9.2576 302.3175 0014209 213.6531 313.3837  1.00340040108660
GORIZONT 4 [-]          
1 11841U 80049A   22251.43921014 -.00000126  00000+0  00000+0 0  9990
2 11841  10.4083 308.1031 0000996 208.7945 185.3070  0.98630751219935
GORIZONT 5 [-]          
1 13092U 82020A   22251.25567292  .00000003  00000+0  00000+0 0  9998
2 13092  11.4019 313.3960 0034563 212.4648 161.5422  0.98530550108023
GORIZONT 6 [-]          
1 13624U 82103A   22251.47796017  .00000073  00000+0  00000+0 0  9991
2 13624  10.3232 313.4324 0002887 189.2501 205.7176  1.00284903107137
GORIZONT 7 [-]          
1 14160U 83066A   22251.48479608 -.00000154  00000+0  00000+0 0  9992
2 14160  11.9856 322.7779 0008554 313.6332  79.4258  0.98349275141204
GORIZONT 8 [-]          
1 14532U 83118A   22251.51379177 -.00000012  00000+0  00000+0 0  9990
2 14532  12.1596 324.6301 0030687 150.4906 131.3399  0.98268291106965
GORIZONT 9 [-]          
1 14940U 84041A   22250.86843267 -.00000186  00000+0  00000+0 0  9994
2 14940  11.3526 322.6724 0004940 205.9482 214.9438  1.00226709108121
GORIZONT 10 [-]         
1 15144U 84078A   22251.44924469  .00000103  00000+0  00000+0 0  9998
2 15144  11.4466 323.6941 0001249 149.4231 240.0563  1.00213556140768
GORIZONT 11 [-]         
1 15484U 85007A   22250.87239941 -.00000277  00000+0  00000+0 0  9991
2 15484  11.6291 325.6763 0004855 154.5699 271.0623  1.00389906138815
GORIZONT 12 [-]         
1 16769U 86044A   22250.86072904 -.00000009  00000+0  00000+0 0  9996
2 16769  12.2473 331.0450 0002045 194.3611 196.3704  1.00200375133445
GORIZONT 13 [-]         
1 17083U 86090A   22251.54086126 -.00000182  00000+0  00000+0 0  9996
2 17083  14.1228 338.2070 0012142 341.0844  20.9659  0.96727425105320
GORIZONT 14 [-]         
1 17969U 87040A   22251.21781358 -.00000100  00000+0  00000+0 0  9998
2 17969  13.0683 329.6160 0032539 173.9677 211.9556  0.97658638106406
GORIZONT 15 [-]         
1 19017U 88028A   22250.86172850 -.00000045  00000+0  00000+0 0  9990
2 19017  14.4120 341.0423 0038718 156.2897 232.9588  0.97826292106003
GORIZONT 16 [-]         
1 19397U 88071A   22251.32740799 -.00000162  00000+0  00000+0 0  9994
2 19397  13.2627 339.7211 0014100  68.3020 325.8640  0.99967049124461
GORIZONT 17 [-]         
1 19765U 89004A   22251.57617463 -.00000093  00000+0  00000+0 0  9991
2 19765  13.8090 343.0633 0024351 133.5770 175.0104  0.99064204121921
GORIZONT 18 [-]         
1 20107U 89052A   22251.55188323 -.00000344  00000+0  00000+0 0  9991
2 20107  13.8524 344.3234 0032862 318.5519  19.0087  0.99403960120717
GORIZONT 19 [-]         
1 20263U 89081A   22250.77784806  .00000034  00000+0  00000+0 0  9992
2 20263  13.5833 343.5189 0004230 195.1801 143.6623  1.00343309 33515
GORIZONT 20 [-]         
1 20659U 90054A   22250.87549064 -.00000309  00000+0  00000+0 0  9995
2 20659  14.0193 346.3437 0007257 164.0147 248.7306  1.00268303117873
GORIZONT 21 [-]         
1 20923U 90094A   22251.26999522 -.00000250  00000+0  00000+0 0  9990
2 20923  14.0322 347.1109 0005342 193.3627 178.9490  1.00382564116634
GORIZONT 22 [-]         
1 20953U 90102A   22251.50743609 -.00000302  00000+0  00000+0 0  9991
2 20953  13.9907 347.4762 0002532  39.0403 284.6756  1.00275080116553
GORIZONT 23 [-]         
1 21533U 91046A   22251.32899944 -.00000065  00000+0  00000+0 0  9994
2 21533  14.7516 351.6245 0002257 311.4746  74.9991  0.98907008 33060
GORIZONT 24 [-]         
1 21759U 91074A   22251.10049472 -.00000230  00000+0  00000+0 0  9998
2 21759  14.9062 353.5289 0017724 221.7231 141.8613  0.98445178111397
GORIZONT 25 [-]         
1 21922U 92017A   22250.04216292 -.00000123  00000+0  00000+0 0  9997
2 21922  14.4497 352.8688 0029469  83.9789 282.7404  0.99858459111176
GORIZONT 26 [-]         
1 22041U 92043A   22251.57520910 -.00000121  00000+0  00000+0 0  9991
2 22041  14.6187 354.8579 0030550 232.4278 154.5627  0.99246149109802
GORIZONT 27 [-]         
1 22245U 92082A   22250.86182086 -.00000068  00000+0  00000+0 0  9999
2 22245  14.5357 354.4593 0011245  16.1682 358.9060  1.00138299113315
GORIZONT 28 [-]         
1 22880U 93069A   22251.48753795  .00000009  00000+0  00000+0 0  9994
2 22880  14.6760 358.3141 0035647 132.5390 228.7950  0.99655779105409
GORIZONT 29 [-]         
1 22907U 93072A   22251.05605132 -.00000092  00000+0  00000+0 0  9995
2 22907  14.5884 357.7801 0008654 351.6124  13.7707  1.00162507105371
GORIZONT 30 [-]         
1 23108U 94030A   22251.56972196 -.00000275  00000+0  00000+0 0  9990
2 23108  14.6006 358.6820 0002909 149.4842 189.2352  1.00279531103649
GORIZONT 31 [-]         
1 23775U 96005A   22251.48404344  .00000060  00000+0  00000+0 0  9991
2 23775  14.5114   4.8934 0018646 198.5139 186.4276  0.99886447 97297
GORIZONT 32 [-]         
1 23880U 96034A   22251.50472037  .00000089  00000+0  00000+0 0  9998
2 23880  14.4602   5.4106 0007991   0.7068  13.1387  1.00170114 96231
GORIZONT 33 [-]         
1 26372U 00029A   22251.20609662 -.00000248  00000+0  00000+0 0  9997
2 26372  13.1728  16.5932 0004641 101.1762 272.9118  1.00313849 81618
